[
    {
        "Altitude(m)": 703889.7232294838,
        "Argument of Periapsis(deg)": 0.007973084830638947,
        "Eccentricity": 0.0,
        "Inclination(deg)": 45.0,
        "Latitude(deg)": 27.6189620792959,
        "Longitude(deg)": 25.826275901069273,
        "Mean Anomaly(deg)": 40.80055165323658,
        "RAAN(deg)": 94.99247364097927,
        "Satellite Name": "Constellation 1 420",
        "Satellite Number": 420,
        "Semi-Major Axis(m)": 7083131.272910544,
        "Time(s)": 133
    },
    {
        "Altitude(m)": 703895.0983581602,
        "Argument of Periapsis(deg)": 0.008033032836884352,
        "Eccentricity": 0.0,
        "Inclination(deg)": 45.0,
        "Latitude(deg)": 27.65579142747004,
        "Longitude(deg)": 25.876716243177963,
        "Mean Anomaly(deg)": 40.86125279348645,
        "RAAN(deg)": 94.99241705181369,
        "Satellite Name": "Constellation 1 420",
        "Satellite Number": 420,
        "Semi-Major Axis(m)": 7083131.272910544,
        "Time(s)": 134
    },
    {
        "Altitude(m)": 703900.4803480256,
        "Argument of Periapsis(deg)": 0.008092980843129758,
        "Eccentricity": 0.0,
        "Inclination(deg)": 45.0,
        "Latitude(deg)": 27.692599111848857,
        "Longitude(deg)": 25.927193125020324,
        "Mean Anomaly(deg)": 40.92195393373636,
        "RAAN(deg)": 94.99236046264812,
        "Satellite Name": "Constellation 1 420",
        "Satellite Number": 420,
        "Semi-Major Axis(m)": 7083131.272910544,
        "Time(s)": 135
    },
    {
        "Altitude(m)": 703905.8691604538,
        "Argument of Periapsis(deg)": 0.008152928849375162,
        "Eccentricity": 0.0,
        "Inclination(deg)": 45.0,
        "Latitude(deg)": 27.72938508462611,
        "Longitude(deg)": 25.97770660672698,
        "Mean Anomaly(deg)": 40.982655073986265,
        "RAAN(deg)": 94.99230387348254,
        "Satellite Name": "Constellation 1 420",
        "Satellite Number": 420,
        "Semi-Major Axis(m)": 7083131.272910544,
        "Time(s)": 136
    },
    {
        "Altitude(m)": 703911.2647567957,
        "Argument of Periapsis(deg)": 0.008212876855620568,
        "Eccentricity": 0.0,
        "Inclination(deg)": 45.0,
        "Latitude(deg)": 27.766149297926273,
        "Longitude(deg)": 26.028256748407085,
        "Mean Anomaly(deg)": 41.04335621423616,
        "RAAN(deg)": 94.99224728431699,
        "Satellite Name": "Constellation 1 420",
        "Satellite Number": 420,
        "Semi-Major Axis(m)": 7083131.272910544,
        "Time(s)": 137
    },
    {
        "Altitude(m)": 703916.6670983891,
        "Argument of Periapsis(deg)": 0.008272824861865974,
        "Eccentricity": 0.0,
        "Inclination(deg)": 45.0,
        "Latitude(deg)": 27.802891703804413,
        "Longitude(deg)": 26.07884361014756,
        "Mean Anomaly(deg)": 41.10405735448609,
        "RAAN(deg)": 94.99219069515142,
        "Satellite Name": "Constellation 1 420",
        "Satellite Number": 420,
        "Semi-Major Axis(m)": 7083131.272910544,
        "Time(s)": 138
    },
    {
        "Altitude(m)": 703922.0761465628,
        "Argument of Periapsis(deg)": 0.00833277286811138,
        "Eccentricity": 0.0,
        "Inclination(deg)": 45.0,
        "Latitude(deg)": 27.839612254246024,
        "Longitude(deg)": 26.12946725201274,
        "Mean Anomaly(deg)": 41.16475849473598,
        "RAAN(deg)": 94.99213410598584,
        "Satellite Name": "Constellation 1 420",
        "Satellite Number": 420,
        "Semi-Major Axis(m)": 7083131.272910544,
        "Time(s)": 139
    },
    {
        "Altitude(m)": 703927.491862611,
        "Argument of Periapsis(deg)": 0.008392720874356788,
        "Eccentricity": 0.0,
        "Inclination(deg)": 45.0,
        "Latitude(deg)": 27.876310901167166,
        "Longitude(deg)": 26.18012773404391,
        "Mean Anomaly(deg)": 41.225459634985874,
        "RAAN(deg)": 94.99207751682027,
        "Satellite Name": "Constellation 1 420",
        "Satellite Number": 420,
        "Semi-Major Axis(m)": 7083131.272910544,
        "Time(s)": 140
    },
    {
        "Altitude(m)": 703932.9142078281,
        "Argument of Periapsis(deg)": 0.008452668880602192,
        "Eccentricity": 0.0,
        "Inclination(deg)": 45.0,
        "Latitude(deg)": 27.91298759641395,
        "Longitude(deg)": 26.230824948161715,
        "Mean Anomaly(deg)": 41.28616077523575,
        "RAAN(deg)": 94.99202092765469,
        "Satellite Name": "Constellation 1 420",
        "Satellite Number": 420,
        "Semi-Major Axis(m)": 7083131.272910544,
        "Time(s)": 141
    },
    {
        "Altitude(m)": 703938.343143485,
        "Argument of Periapsis(deg)": 0.008512616886847598,
        "Eccentricity": 0.0,
        "Inclination(deg)": 45.0,
        "Latitude(deg)": 27.94964229176365,
        "Longitude(deg)": 26.28155929055399,
        "Mean Anomaly(deg)": 41.34686191548567,
        "RAAN(deg)": 94.99196433848913,
        "Satellite Name": "Constellation 1 420",
        "Satellite Number": 420,
        "Semi-Major Axis(m)": 7083131.272910544,
        "Time(s)": 142
    },
    {
        "Altitude(m)": 703943.778630839,
        "Argument of Periapsis(deg)": 0.008572564893093004,
        "Eccentricity": 0.0,
        "Inclination(deg)": 45.0,
        "Latitude(deg)": 27.98627493892288,
        "Longitude(deg)": 26.332330653092665,
        "Mean Anomaly(deg)": 41.40756305573556,
        "RAAN(deg)": 94.99190774932357,
        "Satellite Name": "Constellation 1 420",
        "Satellite Number": 420,
        "Semi-Major Axis(m)": 7083131.272910544,
        "Time(s)": 143
    },
    {
        "Altitude(m)": 703949.2206311262,
        "Argument of Periapsis(deg)": 0.008632512899338408,
        "Eccentricity": 0.0,
        "Inclination(deg)": 45.0,
        "Latitude(deg)": 28.02288548952869,
        "Longitude(deg)": 26.383139095721813,
        "Mean Anomaly(deg)": 41.468264195985455,
        "RAAN(deg)": 94.99185116015799,
        "Satellite Name": "Constellation 1 420",
        "Satellite Number": 420,
        "Semi-Major Axis(m)": 7083131.272910544,
        "Time(s)": 144
    },
    {
        "Altitude(m)": 703954.6691055795,
        "Argument of Periapsis(deg)": 0.008692460905583814,
        "Eccentricity": 0.0,
        "Inclination(deg)": 45.0,
        "Latitude(deg)": 28.059473895148326,
        "Longitude(deg)": 26.433984678359952,
        "Mean Anomaly(deg)": 41.52896533623536,
        "RAAN(deg)": 94.99179457099243,
        "Satellite Name": "Constellation 1 420",
        "Satellite Number": 420,
        "Semi-Major Axis(m)": 7083131.272910544,
        "Time(s)": 145
    },
    {
        "Altitude(m)": 703960.124015403,
        "Argument of Periapsis(deg)": 0.00875240891182922,
        "Eccentricity": 0.0,
        "Inclination(deg)": 45.0,
        "Latitude(deg)": 28.09604010727896,
        "Longitude(deg)": 26.484867460899586,
        "Mean Anomaly(deg)": 41.589666476485256,
        "RAAN(deg)": 94.99173798182684,
        "Satellite Name": "Constellation 1 420",
        "Satellite Number": 420,
        "Semi-Major Axis(m)": 7083131.272910544,
        "Time(s)": 146
    },
    {
        "Altitude(m)": 703965.5853217922,
        "Argument of Periapsis(deg)": 0.008812356918074627,
        "Eccentricity": 0.0,
        "Inclination(deg)": 45.0,
        "Latitude(deg)": 28.132584077347733,
        "Longitude(deg)": 26.53578750320654,
        "Mean Anomaly(deg)": 41.65036761673517,
        "RAAN(deg)": 94.99168139266129,
        "Satellite Name": "Constellation 1 420",
        "Satellite Number": 420,
        "Semi-Major Axis(m)": 7083131.272910544,
        "Time(s)": 147
    },
    {
        "Altitude(m)": 703971.0529859263,
        "Argument of Periapsis(deg)": 0.008872304924320031,
        "Eccentricity": 0.0,
        "Inclination(deg)": 45.0,
        "Latitude(deg)": 28.169105756711378,
        "Longitude(deg)": 26.586744697022596,
        "Mean Anomaly(deg)": 41.711068756985064,
        "RAAN(deg)": 94.99162480349572,
        "Satellite Name": "Constellation 1 420",
        "Satellite Number": 420,
        "Semi-Major Axis(m)": 7083131.272910544,
        "Time(s)": 148
    },
    {
        "Altitude(m)": 703976.5269689705,
        "Argument of Periapsis(deg)": 0.008932252930565437,
        "Eccentricity": 0.0,
        "Inclination(deg)": 45.0,
        "Latitude(deg)": 28.205605096657315,
        "Longitude(deg)": 26.63773943835323,
        "Mean Anomaly(deg)": 41.77176989723497,
        "RAAN(deg)": 94.99156821433016,
        "Satellite Name": "Constellation 1 420",
        "Satellite Number": 420,
        "Semi-Major Axis(m)": 7083131.272910544,
        "Time(s)": 149
    },
    {
        "Altitude(m)": 703982.0072320796,
        "Argument of Periapsis(deg)": 0.008992200936810843,
        "Eccentricity": 0.0,
        "Inclination(deg)": 45.0,
        "Latitude(deg)": 28.24208204840188,
        "Longitude(deg)": 26.688771618884576,
        "Mean Anomaly(deg)": 41.832471037484844,
        "RAAN(deg)": 94.99151162516458,
        "Satellite Name": "Constellation 1 420",
        "Satellite Number": 420,
        "Semi-Major Axis(m)": 7083131.272910544,
        "Time(s)": 150
    },
    {
        "Altitude(m)": 703987.4937363807,
        "Argument of Periapsis(deg)": 0.009052148943056249,
        "Eccentricity": 0.0,
        "Inclination(deg)": 45.0,
        "Latitude(deg)": 28.278536563091325,
        "Longitude(deg)": 26.739841298371303,
        "Mean Anomaly(deg)": 41.893172177734755,
        "RAAN(deg)": 94.99145503599902,
        "Satellite Name": "Constellation 1 420",
        "Satellite Number": 420,
        "Semi-Major Axis(m)": 7083131.272910544,
        "Time(s)": 151
    }
]